( pcb2gcode 2.0.0 )
( Software-independent Gcode )

G94 ( Millimeters per minute feed rate. )
G21 ( Units == Millimeters. )

G90 ( Absolute coordinates. )
G00 S1000 ( RPM spindle speed. )
G01 F250.00000 ( Feedrate. )


G00 Z5.00000 (Retract to tool change height)
T0
M5      (Spindle stop.)
G04 P1.00000 (Wait for spindle to stop)
(MSG, Change tool bit to cutter diameter 1.00000mm)
M6      (Tool change.)
M0      (Temporary machine stop.)
M3 ( Spindle on clockwise. )
G04 P1.00000 (Wait for spindle to get up to speed)
G04 P0 ( dwell for no time -- G64 should not smooth over this point )
G00 Z2.00000 ( retract )

G00 X-6.15748 Y8.16701 ( rapid move to begin. )
G01 Z-0.49333 F125.00000 ( plunge. )
G04 P0 ( dwell for no time -- G64 should not smooth over this point )
G01 F250.00000
G01 X-6.15748 Y88.16701
G01 X-6.19555 Y88.35834
G01 X-6.24175 Y88.44481
G01 X-6.37970 Y88.58275
G01 X-6.46614 Y88.62896
G01 X-6.65748 Y88.66700
G01 X-55.65748 Y88.66700
G01 X-55.84882 Y88.62896
G01 X-55.93528 Y88.58275
G01 X-56.07323 Y88.44481
G01 X-56.14788 Y88.26457
G01 X-56.15748 Y88.16701
G01 X-56.15748 Y58.66701
G01 X-86.65749 Y58.66701
G01 X-86.84883 Y58.62896
G01 X-87.01104 Y58.52056
G01 X-87.07322 Y58.44479
G01 X-87.14789 Y58.26455
G01 X-87.15749 Y58.16701
G01 X-87.15749 Y32.16702
G01 X-87.14789 Y32.06948
G01 X-87.07322 Y31.88922
G01 X-86.93527 Y31.75127
G01 X-86.84883 Y31.70507
G01 X-86.65749 Y31.66702
G01 X-18.15748 Y31.66702
G01 X-18.15748 Y8.16701
G01 X-18.11943 Y7.97568
G01 X-18.07323 Y7.88924
G01 X-17.93528 Y7.75127
G01 X-17.75504 Y7.67662
G01 X-17.65748 Y7.66701
G01 X-6.65748 Y7.66701
G01 X-6.46614 Y7.70506
G01 X-6.30393 Y7.81347
G01 X-6.19555 Y7.97568
G01 X-6.15748 Y8.16701
G01 Z-0.98667 F125.00000 ( plunge. )
G04 P0 ( dwell for no time -- G64 should not smooth over this point )
G01 F250.00000
G01 X-6.15748 Y88.16701
G01 X-6.19555 Y88.35834
G01 X-6.24175 Y88.44481
G01 X-6.37970 Y88.58275
G01 X-6.46614 Y88.62896
G01 X-6.65748 Y88.66700
G01 X-55.65748 Y88.66700
G01 X-55.84882 Y88.62896
G01 X-55.93528 Y88.58275
G01 X-56.07323 Y88.44481
G01 X-56.14788 Y88.26457
G01 X-56.15748 Y88.16701
G01 X-56.15748 Y58.66701
G01 X-86.65749 Y58.66701
G01 X-86.84883 Y58.62896
G01 X-87.01104 Y58.52056
G01 X-87.07322 Y58.44479
G01 X-87.14789 Y58.26455
G01 X-87.15749 Y58.16701
G01 X-87.15749 Y32.16702
G01 X-87.14789 Y32.06948
G01 X-87.07322 Y31.88922
G01 X-86.93527 Y31.75127
G01 X-86.84883 Y31.70507
G01 X-86.65749 Y31.66702
G01 X-18.15748 Y31.66702
G01 X-18.15748 Y8.16701
G01 X-18.11943 Y7.97568
G01 X-18.07323 Y7.88924
G01 X-17.93528 Y7.75127
G01 X-17.75504 Y7.67662
G01 X-17.65748 Y7.66701
G01 X-6.65748 Y7.66701
G01 X-6.46614 Y7.70506
G01 X-6.30393 Y7.81347
G01 X-6.19555 Y7.97568
G01 X-6.15748 Y8.16701
G01 Z-1.48000 F125.00000 ( plunge. )
G04 P0 ( dwell for no time -- G64 should not smooth over this point )
G01 F250.00000
G01 X-6.15748 Y88.16701
G01 X-6.19555 Y88.35834
G01 X-6.24175 Y88.44481
G01 X-6.37970 Y88.58275
G01 X-6.46614 Y88.62896
G01 X-6.65748 Y88.66700
G01 X-55.65748 Y88.66700
G01 X-55.84882 Y88.62896
G01 X-55.93528 Y88.58275
G01 X-56.07323 Y88.44481
G01 X-56.14788 Y88.26457
G01 X-56.15748 Y88.16701
G01 X-56.15748 Y58.66701
G01 X-86.65749 Y58.66701
G01 X-86.84883 Y58.62896
G01 X-87.01104 Y58.52056
G01 X-87.07322 Y58.44479
G01 X-87.14789 Y58.26455
G01 X-87.15749 Y58.16701
G01 X-87.15749 Y32.16702
G01 X-87.14789 Y32.06948
G01 X-87.07322 Y31.88922
G01 X-86.93527 Y31.75127
G01 X-86.84883 Y31.70507
G01 X-86.65749 Y31.66702
G01 X-18.15748 Y31.66702
G01 X-18.15748 Y8.16701
G01 X-18.11943 Y7.97568
G01 X-18.07323 Y7.88924
G01 X-17.93528 Y7.75127
G01 X-17.75504 Y7.67662
G01 X-17.65748 Y7.66701
G01 X-6.65748 Y7.66701
G01 X-6.46614 Y7.70506
G01 X-6.30393 Y7.81347
G01 X-6.19555 Y7.97568
G01 X-6.15748 Y8.16701

G04 P0 ( dwell for no time -- G64 should not smooth over this point )
G00 Z5.000 ( retract )

M5 ( Spindle off. )
G04 P1.000000
M9 ( Coolant off. )
M2 ( Program end. )

